OBJECT_NAME,OBJECT_ID,EPOCH,MEAN_MOTION,ECCENTRICITY,INCLINATION,RA_OF_ASC_NODE,ARG_OF_PERICENTER,MEAN_ANOMALY,EPHEMERIS_TYPE,CLASSIFICATION_TYPE,NORAD_CAT_ID,ELEMENT_SET_NO,REV_AT_EPOCH,BSTAR,MEAN_MOTION_DOT,MEAN_MOTION_DDOT
ONEWEB-0531,2022-138AK,2026-06-13T19:46:31.776096,13.20771714,.0002796,87.9191,275.1054,106.2320,253.9121,0,U,54146,999,17886,-.13063E-3,-.4E-6,0
ONEWEB-0535,2022-138AL,2026-06-13T19:39:36.395136,13.19724921,.0002176,87.9175,305.6294,96.1131,264.0249,0,U,54147,999,17639,.5298E-4,.34E-6,0
ONEWEB-0536,2022-138AM,2026-06-13T19:27:07.282080,13.20770919,.0002919,87.9180,275.1309,110.2106,249.9341,0,U,54148,999,17885,-.22661E-4,.4E-7,0
ONEWEB-0527,2022-166A,2026-06-13T20:00:01.999008,13.21843219,.0002038,87.9257,244.6644,100.9046,199.2082,0,U,54642,999,520,-.10405E+0,-.42769E-3,0
ONEWEB-0528,2022-166B,2026-06-13T18:30:25.123104,13.21824064,.0001852,87.9255,244.6791,102.8413,257.2928,0,U,54643,999,17109,-.25454E-3,-.92E-6,0
ONEWEB-0539,2022-166C,2026-06-13T17:35:56.986944,13.21826484,.0001996,87.9261,244.6583,92.7561,267.3802,0,U,54644,999,17108,-.19027E-3,-.66E-6,0
ONEWEB-0540,2022-166D,2026-06-13T17:45:49.854240,13.21826928,.0002038,87.9253,244.6873,95.1683,264.9684,0,U,54645,999,17107,-.54583E-4,-.1E-6,0
ONEWEB-0542,2022-166E,2026-06-13T17:50:28.235040,13.21827516,.0002042,87.9263,244.6549,90.0467,270.0901,0,U,54646,999,17108,-.77244E-4,-.19E-6,0
ONEWEB-0545,2022-166F,2026-06-13T18:48:35.960256,13.21827714,.0002202,87.9254,244.6590,85.7069,274.4317,0,U,54647,999,17105,.7493E-4,.44E-6,0
ONEWEB-0580,2022-166G,2026-06-13T18:12:15.840288,13.21827439,.0002286,87.9253,244.6635,90.4258,269.7138,0,U,54648,999,17109,-.18584E-3,-.64E-6,0
ONEWEB-0582,2022-166H,2026-06-13T17:23:50.366400,13.21826383,.0002216,87.9255,244.6629,87.6962,272.4426,0,U,54649,999,17106,-.9788E-6,.13E-6,0
ONEWEB-0583,2022-166J,2026-06-13T17:40:46.928064,13.21827596,.0002058,87.9252,244.6841,95.8163,264.3205,0,U,54650,999,17107,-.17251E-3,-.58E-6,0
ONEWEB-0584,2022-166K,2026-06-13T18:09:50.884416,13.21824863,.0002129,87.9252,244.6655,96.3782,263.7594,0,U,54651,999,17106,-.27167E-3,-.99E-6,0
ONEWEB-0585,2022-166L,2026-06-13T18:43:46.657632,13.21826106,.0002,87.9256,244.6477,103.3593,256.7764,0,U,54652,999,17107,.31926E-4,.26E-6,0
ONEWEB-0586,2022-166M,2026-06-13T17:14:07.517184,13.21823888,.0002011,87.9255,244.6857,94.1045,266.0319,0,U,54653,999,17106,-.79463E-6,.13E-6,0
ONEWEB-0587,2022-166N,2026-06-13T17:28:39.448704,13.21823975,.0001994,87.9265,244.6569,109.1002,251.0348,0,U,54654,999,17122,-.53076E-4,-.9E-7,0
ONEWEB-0589,2022-166P,2026-06-13T17:09:16.979904,13.21824008,.0002514,87.9252,244.6723,80.7304,279.4114,0,U,54655,999,17108,.56988E-4,.37E-6,0
ONEWEB-0590,2022-166Q,2026-06-13T17:45:26.237664,13.21826686,.0002488,87.9262,244.6571,101.8400,258.3013,0,U,54656,999,17107,-.17337E-3,-.59E-6,0
ONEWEB-0591,2022-166R,2026-06-13T18:02:36.083328,13.21826357,.0002088,87.9253,244.6696,98.6862,261.4508,0,U,54657,999,17110,-.18989E-3,-.65E-6,0
ONEWEB-0592,2022-166S,2026-06-13T18:07:25.786848,13.21827029,.0002026,87.9262,244.6469,98.1258,262.0106,0,U,54658,999,17098,-.22672E-3,-.81E-6,0
ONEWEB-0593,2022-166T,2026-06-13T18:38:53.985408,13.21825668,.0001926,87.9254,244.6543,94.4203,265.7151,0,U,54659,999,17109,-.61032E-3,-.239E-5,0
ONEWEB-0594,2022-166U,2026-06-13T17:18:59.582880,13.21820734,.0001916,87.9255,244.6819,102.3595,257.7753,0,U,54660,999,17110,.25766E-2,.1077E-4,0
ONEWEB-0595,2022-166V,2026-06-13T18:34:04.217952,13.21826807,.0002098,87.9262,244.6517,105.8633,254.2732,0,U,54661,999,17108,-.99949E-4,-.28E-6,0
ONEWEB-0596,2022-166W,2026-06-13T17:57:45.001728,13.21826406,.0002042,87.9256,244.6685,101.7946,258.3417,0,U,54662,999,17108,-.19487E-3,-.67E-6,0
ONEWEB-0597,2022-166X,2026-06-13T17:31:06.248352,13.21826536,.0002032,87.9252,244.6754,95.4104,264.7262,0,U,54663,999,17108,-.87611E-4,-.23E-6,0
ONEWEB-0600,2022-166Y,2026-06-13T17:04:26.139360,13.21823900,.0001884,87.9255,244.6705,96.0875,264.0474,0,U,54664,999,17105,.47117E-4,.32E-6,0
ONEWEB-0601,2022-166Z,2026-06-13T18:41:20.410080,13.21825021,.0002148,87.9253,244.6731,92.5314,267.6065,0,U,54665,999,17125,-.51829E-4,-.8E-7,0
ONEWEB-0602,2022-166AA,2026-06-13T17:51:41.019264,13.21826202,.0001775,87.9254,244.6859,93.9493,266.1844,0,U,54666,999,17109,-.83898E-4,-.22E-6,0
ONEWEB-0603,2022-166AB,2026-06-13T16:11:10.334688,13.21826577,.0001981,87.9263,244.6564,95.8548,264.2812,0,U,54667,999,17101,-.24453E-3,-.88E-6,0
ONEWEB-0604,2022-166AC,2026-06-13T17:43:12.174240,13.21827160,.0001999,87.9263,244.6596,101.4156,258.7202,0,U,54668,999,17098,-.28708E-3,-.106E-5,0
