ONEWEB-0531             
1 54146U 22138AK  26164.82397889 -.00000040  00000+0 -13063-3 0  9990
2 54146  87.9191 275.1054 0002796 106.2320 253.9121 13.20771714178865
ONEWEB-0535             
1 54147U 22138AL  26164.81917124  .00000034  00000+0  52980-4 0  9993
2 54147  87.9175 305.6294 0002176  96.1131 264.0249 13.19724921176398
ONEWEB-0536             
1 54148U 22138AM  26164.81050095  .00000004  00000+0 -22661-4 0  9990
2 54148  87.9180 275.1309 0002919 110.2106 249.9341 13.20770919178856
ONEWEB-0527             
1 54642U 22166A   26164.83335647 -.00042769  00000+0 -10405+0 0  9994
2 54642  87.9257 244.6644 0002038 100.9046 199.2082 13.21843219  5206
ONEWEB-0528             
1 54643U 22166B   26164.77112411 -.00000092  00000+0 -25454-3 0  9997
2 54643  87.9255 244.6791 0001852 102.8413 257.2928 13.21824064171092
ONEWEB-0539             
1 54644U 22166C   26164.73329846 -.00000066  00000+0 -19027-3 0  9996
2 54644  87.9261 244.6583 0001996  92.7561 267.3802 13.21826484171089
ONEWEB-0540             
1 54645U 22166D   26164.74016035 -.00000010  00000+0 -54583-4 0  9997
2 54645  87.9253 244.6873 0002038  95.1683 264.9684 13.21826928171076
ONEWEB-0542             
1 54646U 22166E   26164.74338235 -.00000019  00000+0 -77244-4 0  9995
2 54646  87.9263 244.6549 0002042  90.0467 270.0901 13.21827516171082
ONEWEB-0545             
1 54647U 22166F   26164.78374954  .00000044  00000+0  74930-4 0  9993
2 54647  87.9254 244.6590 0002202  85.7069 274.4317 13.21827714171052
ONEWEB-0580             
1 54648U 22166G   26164.75851667 -.00000064  00000+0 -18584-3 0  9998
2 54648  87.9253 244.6635 0002286  90.4258 269.7138 13.21827439171093
ONEWEB-0582             
1 54649U 22166H   26164.72488850  .00000013  00000+0 -97880-6 0  9998
2 54649  87.9255 244.6629 0002216  87.6962 272.4426 13.21826383171067
ONEWEB-0583             
1 54650U 22166J   26164.73665426 -.00000058  00000+0 -17251-3 0  9998
2 54650  87.9252 244.6841 0002058  95.8163 264.3205 13.21827596171073
ONEWEB-0584             
1 54651U 22166K   26164.75683894 -.00000099  00000+0 -27167-3 0  9992
2 54651  87.9252 244.6655 0002129  96.3782 263.7594 13.21824863171066
ONEWEB-0585             
1 54652U 22166L   26164.78040113  .00000026  00000+0  31926-4 0  9994
2 54652  87.9256 244.6477 0002000 103.3593 256.7764 13.21826106171074
ONEWEB-0586             
1 54653U 22166M   26164.71814256  .00000013  00000+0 -79463-6 0  9992
2 54653  87.9255 244.6857 0002011  94.1045 266.0319 13.21823888171060
ONEWEB-0587             
1 54654U 22166N   26164.72823436 -.00000009  00000+0 -53076-4 0  9990
2 54654  87.9265 244.6569 0001994 109.1002 251.0348 13.21823975171222
ONEWEB-0589             
1 54655U 22166P   26164.71477986  .00000037  00000+0  56988-4 0  9999
2 54655  87.9252 244.6723 0002514  80.7304 279.4114 13.21824008171086
ONEWEB-0590             
1 54656U 22166Q   26164.73988701 -.00000059  00000+0 -17337-3 0  9994
2 54656  87.9262 244.6571 0002488 101.8400 258.3013 13.21826686171078
ONEWEB-0591             
1 54657U 22166R   26164.75180652 -.00000065  00000+0 -18989-3 0  9997
2 54657  87.9253 244.6696 0002088  98.6862 261.4508 13.21826357171101
ONEWEB-0592             
1 54658U 22166S   26164.75515957 -.00000081  00000+0 -22672-3 0  9990
2 54658  87.9262 244.6469 0002026  98.1258 262.0106 13.21827029170989
ONEWEB-0593             
1 54659U 22166T   26164.77701372 -.00000239  00000+0 -61032-3 0  9999
2 54659  87.9254 244.6543 0001926  94.4203 265.7151 13.21825668171091
ONEWEB-0594             
1 54660U 22166U   26164.72152295  .00001077  00000+0  25766-2 0  9992
2 54660  87.9255 244.6819 0001916 102.3595 257.7753 13.21820734171102
ONEWEB-0595             
1 54661U 22166V   26164.77365993 -.00000028  00000+0 -99949-4 0  9992
2 54661  87.9262 244.6517 0002098 105.8633 254.2732 13.21826807171082
ONEWEB-0596             
1 54662U 22166W   26164.74843752 -.00000067  00000+0 -19487-3 0  9995
2 54662  87.9256 244.6685 0002042 101.7946 258.3417 13.21826406171083
ONEWEB-0597             
1 54663U 22166X   26164.72993343 -.00000023  00000+0 -87611-4 0  9993
2 54663  87.9252 244.6754 0002032  95.4104 264.7262 13.21826536171084
ONEWEB-0600             
1 54664U 22166Y   26164.71141365  .00000032  00000+0  47117-4 0  9997
2 54664  87.9255 244.6705 0001884  96.0875 264.0474 13.21823900171057
ONEWEB-0601             
1 54665U 22166Z   26164.77870845 -.00000008  00000+0 -51829-4 0  9996
2 54665  87.9253 244.6731 0002148  92.5314 267.6065 13.21825021171251
ONEWEB-0602             
1 54666U 22166AA  26164.74422476 -.00000022  00000+0 -83898-4 0  9994
2 54666  87.9254 244.6859 0001775  93.9493 266.1844 13.21826202171095
ONEWEB-0603             
1 54667U 22166AB  26164.67442517 -.00000088  00000+0 -24453-3 0  9998
2 54667  87.9263 244.6564 0001981  95.8548 264.2812 13.21826577171011
ONEWEB-0604             
1 54668U 22166AC  26164.73833535 -.00000106  00000+0 -28708-3 0  9998
2 54668  87.9263 244.6596 0001999 101.4156 258.7202 13.21827160170980
